[{"OBJECT_NAME":"OBJECT B","OBJECT_ID":"2024-205B","EPOCH":"2026-03-09T23:46:05.115936","MEAN_MOTION":15.28158697,"ECCENTRICITY":0.00105957,"INCLINATION":97.4192,"RA_OF_ASC_NODE":146.9311,"ARG_OF_PERICENTER":34.0947,"MEAN_ANOMALY":326.0972,"EPHEMERIS_TYPE":0,"CLASSIFICATION_TYPE":"U","NORAD_CAT_ID":61895,"ELEMENT_SET_NO":999,"REV_AT_EPOCH":7352,"BSTAR":0.00054154807,"MEAN_MOTION_DOT":0.00014827,"MEAN_MOTION_DDOT":0},{"OBJECT_NAME":"STARLINK-32769","OBJECT_ID":"2025-008R","EPOCH":"2026-03-09T22:32:12.011424","MEAN_MOTION":15.27588348,"ECCENTRICITY":0.0001602,"INCLINATION":42.9992,"RA_OF_ASC_NODE":276.4122,"ARG_OF_PERICENTER":259.1156,"MEAN_ANOMALY":100.9515,"EPHEMERIS_TYPE":0,"CLASSIFICATION_TYPE":"U","NORAD_CAT_ID":62602,"ELEMENT_SET_NO":999,"REV_AT_EPOCH":6566,"BSTAR":0.001053351,"MEAN_MOTION_DOT":0.00028845,"MEAN_MOTION_DDOT":0}]
